{
  "type": "FeatureCollection",
  "features": [
    {
      "type": "Feature",
      "properties": {
        "norad_id": 30315,
        "name": "FENGYUN 1C DEB",
        "group": "fengyun-1c-debris",
        "lat": -41.12871576510127,
        "lon": 172.38019449979373,
        "alt_km": 850.3889490510119,
        "timestamp": "2025-12-16T13:52:37.798762+00:00",
        "meta_object_name": "FENGYUN 1C DEB",
        "meta_object_id": "1999-025AAC",
        "meta_epoch": "2025-12-15T20:29:19.279968",
        "meta_mean_motion": 14.19068925,
        "meta_eccentricity": 0.00350344,
        "meta_inclination": 98.6017,
        "meta_ra_of_asc_node": 359.2724,
        "meta_arg_of_pericenter": 351.3471,
        "meta_mean_anomaly": 131.3506,
        "meta_ephemeris_type": 0,
        "meta_classification_type": "U",
        "meta_norad_cat_id": 30315,
        "meta_element_set_no": 999,
        "meta_rev_at_epoch": 97751,
        "meta_bstar": 0.00033145752,
        "meta_mean_motion_dot": 6.54e-06,
        "meta_mean_motion_ddot": 0,
        "tle_line1": "1 30315U 99025AAC 25349.85369537  .00000654  00000+0  33146-3 0  9990",
        "tle_line2": "2 30315  98.6017 359.2724 0035034 351.3471 131.3506 14.19068925977519"
      },
      "geometry": {
        "type": "Point",
        "coordinates": [
          172.38019449979373,
          -41.12871576510127
        ]
      }
    },
    {
      "type": "Feature",
      "properties": {
        "norad_id": 30316,
        "name": "FENGYUN 1C DEB",
        "group": "fengyun-1c-debris",
        "lat": 64.90188185000893,
        "lon": 74.16989860473097,
        "alt_km": 679.600669535931,
        "timestamp": "2025-12-16T13:52:37.798772+00:00",
        "meta_object_name": "FENGYUN 1C DEB",
        "meta_object_id": "1999-025AAD",
        "meta_epoch": "2025-12-15T04:35:32.228736",
        "meta_mean_motion": 14.5611799,
        "meta_eccentricity": 0.00355176,
        "meta_inclination": 98.6478,
        "meta_ra_of_asc_node": 91.6936,
        "meta_arg_of_pericenter": 32.1406,
        "meta_mean_anomaly": 328.1946,
        "meta_ephemeris_type": 0,
        "meta_classification_type": "U",
        "meta_norad_cat_id": 30316,
        "meta_element_set_no": 999,
        "meta_rev_at_epoch": 98372,
        "meta_bstar": 0.001358848,
        "meta_mean_motion_dot": 5.999e-05,
        "meta_mean_motion_ddot": 0,
        "tle_line1": "1 30316U 99025AAD 25349.19134524  .00005999  00000+0  13588-2 0  9998",
        "tle_line2": "2 30316  98.6478  91.6936 0035517  32.1406 328.1946 14.56117990983723"
      },
      "geometry": {
        "type": "Point",
        "coordinates": [
          74.16989860473097,
          64.90188185000893
        ]
      }
    },
    {
      "type": "Feature",
      "properties": {
        "norad_id": 30317,
        "name": "FENGYUN 1C DEB",
        "group": "fengyun-1c-debris",
        "lat": 46.06378841606148,
        "lon": -18.295091667119962,
        "alt_km": 879.3814542618456,
        "timestamp": "2025-12-16T13:52:37.798782+00:00",
        "meta_object_name": "FENGYUN 1C DEB",
        "meta_object_id": "1999-025AAE",
        "meta_epoch": "2025-12-15T22:17:39.236640",
        "meta_mean_motion": 14.06949941,
        "meta_eccentricity": 0.00241085,
        "meta_inclination": 98.7865,
        "meta_ra_of_asc_node": 350.311,
        "meta_arg_of_pericenter": 267.3823,
        "meta_mean_anomaly": 92.4586,
        "meta_ephemeris_type": 0,
        "meta_classification_type": "U",
        "meta_norad_cat_id": 30317,
        "meta_element_set_no": 999,
        "meta_rev_at_epoch": 97058,
        "meta_bstar": 0.0002573218,
        "meta_mean_motion_dot": 3.87e-06,
        "meta_mean_motion_ddot": 0,
        "tle_line1": "1 30317U 99025AAE 25349.92892635  .00000387  00000+0  25732-3 0  9995",
        "tle_line2": "2 30317  98.7865 350.3110 0024108 267.3823  92.4586 14.06949941970588"
      },
      "geometry": {
        "type": "Point",
        "coordinates": [
          -18.295091667119962,
          46.06378841606148
        ]
      }
    },
    {
      "type": "Feature",
      "properties": {
        "norad_id": 30320,
        "name": "FENGYUN 1C DEB",
        "group": "fengyun-1c-debris",
        "lat": 10.694369224831334,
        "lon": 48.13171397737551,
        "alt_km": 896.3619109042256,
        "timestamp": "2025-12-16T13:52:37.798793+00:00",
        "meta_object_name": "FENGYUN 1C DEB",
        "meta_object_id": "1999-025AAH",
        "meta_epoch": "2025-12-15T17:49:26.065056",
        "meta_mean_motion": 13.98556212,
        "meta_eccentricity": 0.00850758,
        "meta_inclination": 99.1874,
        "meta_ra_of_asc_node": 49.0463,
        "meta_arg_of_pericenter": 286.2799,
        "meta_mean_anomaly": 199.1419,
        "meta_ephemeris_type": 0,
        "meta_classification_type": "U",
        "meta_norad_cat_id": 30320,
        "meta_element_set_no": 999,
        "meta_rev_at_epoch": 96449,
        "meta_bstar": 0.00011397779,
        "meta_mean_motion_dot": 1.23e-06,
        "meta_mean_motion_ddot": 0,
        "tle_line1": "1 30320U 99025AAH 25349.74266279  .00000123  00000+0  11398-3 0  9999",
        "tle_line2": "2 30320  99.1874  49.0463 0085075 286.2799 199.1419 13.98556212964490"
      },
      "geometry": {
        "type": "Point",
        "coordinates": [
          48.13171397737551,
          10.694369224831334
        ]
      }
    },
    {
      "type": "Feature",
      "properties": {
        "norad_id": 30321,
        "name": "FENGYUN 1C DEB",
        "group": "fengyun-1c-debris",
        "lat": -46.70111049675696,
        "lon": -1.186516270574903,
        "alt_km": 840.9606931587805,
        "timestamp": "2025-12-16T13:52:37.798810+00:00",
        "meta_object_name": "FENGYUN 1C DEB",
        "meta_object_id": "1999-025AAJ",
        "meta_epoch": "2025-12-15T18:37:07.140576",
        "meta_mean_motion": 14.16644511,
        "meta_eccentricity": 0.00600416,
        "meta_inclination": 98.6562,
        "meta_ra_of_asc_node": 348.7296,
        "meta_arg_of_pericenter": 227.9482,
        "meta_mean_anomaly": 313.9734,
        "meta_ephemeris_type": 0,
        "meta_classification_type": "U",
        "meta_norad_cat_id": 30321,
        "meta_element_set_no": 999,
        "meta_rev_at_epoch": 97586,
        "meta_bstar": 0.00030866068,
        "meta_mean_motion_dot": 5.84e-06,
        "meta_mean_motion_ddot": 0,
        "tle_line1": "1 30321U 99025AAJ 25349.77577709  .00000584  00000+0  30866-3 0  9998",
        "tle_line2": "2 30321  98.6562 348.7296 0060041 227.9482 313.9734 14.16644511975869"
      },
      "geometry": {
        "type": "Point",
        "coordinates": [
          -1.186516270574903,
          -46.70111049675696
        ]
      }
    },
    {
      "type": "Feature",
      "properties": {
        "norad_id": 30322,
        "name": "FENGYUN 1C DEB",
        "group": "fengyun-1c-debris",
        "lat": 3.265234082510315,
        "lon": 28.475533797726758,
        "alt_km": 836.2583802090876,
        "timestamp": "2025-12-16T13:52:37.798821+00:00",
        "meta_object_name": "FENGYUN 1C DEB",
        "meta_object_id": "1999-025AAK",
        "meta_epoch": "2025-12-15T13:07:06.335040",
        "meta_mean_motion": 14.06110392,
        "meta_eccentricity": 0.01267086,
        "meta_inclination": 98.3983,
        "meta_ra_of_asc_node": 207.0354,
        "meta_arg_of_pericenter": 245.1193,
        "meta_mean_anomaly": 113.6761,
        "meta_ephemeris_type": 0,
        "meta_classification_type": "U",
        "meta_norad_cat_id": 30322,
        "meta_element_set_no": 999,
        "meta_rev_at_epoch": 96239,
        "meta_bstar": 0.0011096479,
        "meta_mean_motion_dot": 1.919e-05,
        "meta_mean_motion_ddot": 0,
        "tle_line1": "1 30322U 99025AAK 25349.54660110  .00001919  00000+0  11096-2 0  9999",
        "tle_line2": "2 30322  98.3983 207.0354 0126708 245.1193 113.6761 14.06110392962393"
      },
      "geometry": {
        "type": "Point",
        "coordinates": [
          28.475533797726758,
          3.265234082510315
        ]
      }
    },
    {
      "type": "Feature",
      "properties": {
        "norad_id": 30325,
        "name": "FENGYUN 1C DEB",
        "group": "fengyun-1c-debris",
        "lat": -67.63801018669707,
        "lon": 167.87154286211825,
        "alt_km": 858.6620062413385,
        "timestamp": "2025-12-16T13:52:37.798831+00:00",
        "meta_object_name": "FENGYUN 1C DEB",
        "meta_object_id": "1999-025AAL",
        "meta_epoch": "2025-12-15T19:39:19.519488",
        "meta_mean_motion": 14.09105375,
        "meta_eccentricity": 0.00153146,
        "meta_inclination": 98.7328,
        "meta_ra_of_asc_node": 9.0747,
        "meta_arg_of_pericenter": 243.9317,
        "meta_mean_anomaly": 116.0277,
        "meta_ephemeris_type": 0,
        "meta_classification_type": "U",
        "meta_norad_cat_id": 30325,
        "meta_element_set_no": 999,
        "meta_rev_at_epoch": 97059,
        "meta_bstar": 5.8540194e-05,
        "meta_mean_motion_dot": 5.9e-07,
        "meta_mean_motion_ddot": 0,
        "tle_line1": "1 30325U 99025AAL 25349.81897592  .00000059  00000+0  58540-4 0  9999",
        "tle_line2": "2 30325  98.7328   9.0747 0015314 243.9317 116.0277 14.09105375970591"
      },
      "geometry": {
        "type": "Point",
        "coordinates": [
          167.87154286211825,
          -67.63801018669707
        ]
      }
    }
  ]
}